{
  "type": "FeatureCollection",
  "features": [
    {
      "type": "Feature",
      "properties": {
        "norad_id": 42989,
        "name": "SKYSAT-C9",
        "group": "resource",
        "lat": 81.52037792604997,
        "lon": 2.8783754291540626,
        "alt_km": 443.2866224936324,
        "timestamp": "2025-12-17T15:50:09.434442+00:00",
        "meta_object_name": "SKYSAT-C9",
        "meta_object_id": "2017-068C",
        "meta_epoch": "2025-12-17T07:36:42.694848",
        "meta_mean_motion": 15.36166959,
        "meta_eccentricity": 0.00106058,
        "meta_inclination": 97.4187,
        "meta_ra_of_asc_node": 121.607,
        "meta_arg_of_pericenter": 73.0868,
        "meta_mean_anomaly": 287.1538,
        "meta_ephemeris_type": 0,
        "meta_classification_type": "U",
        "meta_norad_cat_id": 42989,
        "meta_element_set_no": 999,
        "meta_rev_at_epoch": 45478,
        "meta_bstar": 0.0003240205,
        "meta_mean_motion_dot": 0.00011361,
        "meta_mean_motion_ddot": 0,
        "tle_line1": "1 42989U 17068C   25351.31716082  .00011361  00000+0  32402-3 0  9993",
        "tle_line2": "2 42989  97.4187 121.6070 0010605  73.0868 287.1538 15.36166959454784"
      },
      "geometry": {
        "type": "Point",
        "coordinates": [
          2.8783754291540626,
          81.52037792604997
        ]
      }
    },
    {
      "type": "Feature",
      "properties": {
        "norad_id": 42990,
        "name": "SKYSAT-C8",
        "group": "resource",
        "lat": 9.184554496690563,
        "lon": 120.4725382948447,
        "alt_km": 467.99798314754844,
        "timestamp": "2025-12-17T15:50:09.434453+00:00",
        "meta_object_name": "SKYSAT-C8",
        "meta_object_id": "2017-068D",
        "meta_epoch": "2025-12-17T07:57:46.624896",
        "meta_mean_motion": 15.33021868,
        "meta_eccentricity": 0.00012634,
        "meta_inclination": 97.4278,
        "meta_ra_of_asc_node": 121.3518,
        "meta_arg_of_pericenter": 326.0348,
        "meta_mean_anomaly": 34.0813,
        "meta_ephemeris_type": 0,
        "meta_classification_type": "U",
        "meta_norad_cat_id": 42990,
        "meta_element_set_no": 999,
        "meta_rev_at_epoch": 45441,
        "meta_bstar": 0.00030707047,
        "meta_mean_motion_dot": 9.718e-05,
        "meta_mean_motion_ddot": 0,
        "tle_line1": "1 42990U 17068D   25351.33178964  .00009718  00000+0  30707-3 0  9997",
        "tle_line2": "2 42990  97.4278 121.3518 0001263 326.0348  34.0813 15.33021868454416"
      },
      "geometry": {
        "type": "Point",
        "coordinates": [
          120.4725382948447,
          9.184554496690563
        ]
      }
    },
    {
      "type": "Feature",
      "properties": {
        "norad_id": 42991,
        "name": "SKYSAT-C7",
        "group": "resource",
        "lat": -34.03974716441049,
        "lon": -62.338237988932555,
        "alt_km": 479.86470350394484,
        "timestamp": "2025-12-17T15:50:09.434463+00:00",
        "meta_object_name": "SKYSAT-C7",
        "meta_object_id": "2017-068E",
        "meta_epoch": "2025-12-17T07:04:05.867040",
        "meta_mean_motion": 15.32423091,
        "meta_eccentricity": 0.00073746,
        "meta_inclination": 97.4285,
        "meta_ra_of_asc_node": 122.3517,
        "meta_arg_of_pericenter": 42.7677,
        "meta_mean_anomaly": 317.4138,
        "meta_ephemeris_type": 0,
        "meta_classification_type": "U",
        "meta_norad_cat_id": 42991,
        "meta_element_set_no": 999,
        "meta_rev_at_epoch": 45447,
        "meta_bstar": 0.00029922936,
        "meta_mean_motion_dot": 9.298e-05,
        "meta_mean_motion_ddot": 0,
        "tle_line1": "1 42991U 17068E   25351.29451235  .00009298  00000+0  29923-3 0  9999",
        "tle_line2": "2 42991  97.4285 122.3517 0007374  42.7677 317.4138 15.32423091454478"
      },
      "geometry": {
        "type": "Point",
        "coordinates": [
          -62.338237988932555,
          -34.03974716441049
        ]
      }
    },
    {
      "type": "Feature",
      "properties": {
        "norad_id": 42992,
        "name": "SKYSAT-C6",
        "group": "resource",
        "lat": -43.35185769380159,
        "lon": 130.23160786604595,
        "alt_km": 479.1346564078367,
        "timestamp": "2025-12-17T15:50:09.434473+00:00",
        "meta_object_name": "SKYSAT-C6",
        "meta_object_id": "2017-068F",
        "meta_epoch": "2025-12-17T08:11:12.621984",
        "meta_mean_motion": 15.3158374,
        "meta_eccentricity": 0.00050921,
        "meta_inclination": 97.4319,
        "meta_ra_of_asc_node": 122.8333,
        "meta_arg_of_pericenter": 69.9436,
        "meta_mean_anomaly": 290.2353,
        "meta_ephemeris_type": 0,
        "meta_classification_type": "U",
        "meta_norad_cat_id": 42992,
        "meta_element_set_no": 999,
        "meta_rev_at_epoch": 45446,
        "meta_bstar": 0.00029339783,
        "meta_mean_motion_dot": 8.874e-05,
        "meta_mean_motion_ddot": 0,
        "tle_line1": "1 42992U 17068F   25351.34111831  .00008874  00000+0  29340-3 0  9993",
        "tle_line2": "2 42992  97.4319 122.8333 0005092  69.9436 290.2353 15.31583740454460"
      },
      "geometry": {
        "type": "Point",
        "coordinates": [
          130.23160786604595,
          -43.35185769380159
        ]
      }
    },
    {
      "type": "Feature",
      "properties": {
        "norad_id": 43111,
        "name": "CARTOSAT-2F",
        "group": "resource",
        "lat": -26.175616330766395,
        "lon": -134.46029303678188,
        "alt_km": 513.2930567791982,
        "timestamp": "2025-12-17T15:50:09.434484+00:00",
        "meta_object_name": "CARTOSAT-2F",
        "meta_object_id": "2018-004A",
        "meta_epoch": "2025-12-17T08:36:29.412864",
        "meta_mean_motion": 15.19324192,
        "meta_eccentricity": 0.00012905,
        "meta_inclination": 97.4319,
        "meta_ra_of_asc_node": 48.9221,
        "meta_arg_of_pericenter": 140.4105,
        "meta_mean_anomaly": 219.7224,
        "meta_ephemeris_type": 0,
        "meta_classification_type": "U",
        "meta_norad_cat_id": 43111,
        "meta_element_set_no": 999,
        "meta_rev_at_epoch": 43972,
        "meta_bstar": 0.00022665679,
        "meta_mean_motion_dot": 4.72e-05,
        "meta_mean_motion_ddot": 0,
        "tle_line1": "1 43111U 18004A   25351.35867376  .00004720  00000+0  22666-3 0  9991",
        "tle_line2": "2 43111  97.4319  48.9221 0001290 140.4105 219.7224 15.19324192439727"
      },
      "geometry": {
        "type": "Point",
        "coordinates": [
          -134.46029303678188,
          -26.175616330766395
        ]
      }
    },
    {
      "type": "Feature",
      "properties": {
        "norad_id": 43259,
        "name": "GAOFEN-1 02",
        "group": "resource",
        "lat": -64.27394955265427,
        "lon": 66.60048402086771,
        "alt_km": 647.9652326960268,
        "timestamp": "2025-12-17T15:50:09.434494+00:00",
        "meta_object_name": "GAOFEN-1 02",
        "meta_object_id": "2018-031A",
        "meta_epoch": "2025-12-17T07:59:58.515360",
        "meta_mean_motion": 14.76425695,
        "meta_eccentricity": 0.00020167,
        "meta_inclination": 98.0807,
        "meta_ra_of_asc_node": 49.1246,
        "meta_arg_of_pericenter": 200.4781,
        "meta_mean_anomaly": 159.6348,
        "meta_ephemeris_type": 0,
        "meta_classification_type": "U",
        "meta_norad_cat_id": 43259,
        "meta_element_set_no": 999,
        "meta_rev_at_epoch": 41586,
        "meta_bstar": 0.00013616228,
        "meta_mean_motion_dot": 8.95e-06,
        "meta_mean_motion_ddot": 0,
        "tle_line1": "1 43259U 18031A   25351.33331615  .00000895  00000+0  13616-3 0  9998",
        "tle_line2": "2 43259  98.0807  49.1246 0002016 200.4781 159.6348 14.76425695415863"
      },
      "geometry": {
        "type": "Point",
        "coordinates": [
          66.60048402086771,
          -64.27394955265427
        ]
      }
    },
    {
      "type": "Feature",
      "properties": {
        "norad_id": 43260,
        "name": "GAOFEN-1 03",
        "group": "resource",
        "lat": 49.36594136580643,
        "lon": 39.79926010039151,
        "alt_km": 636.5607165760703,
        "timestamp": "2025-12-17T15:50:09.434505+00:00",
        "meta_object_name": "GAOFEN-1 03",
        "meta_object_id": "2018-031B",
        "meta_epoch": "2025-12-17T07:28:39.210816",
        "meta_mean_motion": 14.7644622,
        "meta_eccentricity": 0.00017749,
        "meta_inclination": 98.0793,
        "meta_ra_of_asc_node": 48.979,
        "meta_arg_of_pericenter": 299.1313,
        "meta_mean_anomaly": 60.9719,
        "meta_ephemeris_type": 0,
        "meta_classification_type": "U",
        "meta_norad_cat_id": 43260,
        "meta_element_set_no": 999,
        "meta_rev_at_epoch": 41585,
        "meta_bstar": 0.00011839322,
        "meta_mean_motion_dot": 7.72e-06,
        "meta_mean_motion_ddot": 0,
        "tle_line1": "1 43260U 18031B   25351.31156494  .00000772  00000+0  11839-3 0  9997",
        "tle_line2": "2 43260  98.0793  48.9790 0001774 299.1313  60.9719 14.76446220415858"
      },
      "geometry": {
        "type": "Point",
        "coordinates": [
          39.79926010039151,
          49.36594136580643
        ]
      }
    }
  ]
}